{"type": "FeatureCollection", "features": [ {"type": "Feature", "properties": {"norad_id": 30515, "name": "FENGYUN 1C DEB", "group": "fengyun-1c-debris", "lat": -64.91899319441397, "lon": 21.16226832200762, "alt_km": 1377.9062101599848, "timestamp": "2025-12-09T05:43:21.002784+00:00", "meta": {"OBJECT_NAME": "FENGYUN 1C DEB", "OBJECT_ID": "1999-025AJD", "EPOCH": "2025-12-08T14:36:39.036096", "MEAN_MOTION": 13.63770997, "ECCENTRICITY": 0.0496845, "INCLINATION": 98.5091, "RA_OF_ASC_NODE": 219.263, "ARG_OF_PERICENTER": 85.5717, "MEAN_ANOMALY": 309.2494, "EPHEMERIS_TYPE": 0, "CLASSIFICATION_TYPE": "U", "NORAD_CAT_ID": 30515, "ELEMENT_SET_NO": 999, "REV_AT_EPOCH": 93274, "BSTAR": 0.0015356, "MEAN_MOTION_DOT": 2.794e-05, "MEAN_MOTION_DDOT": 0}, "tle": {"line1": "1 30515U 99025AJD 25342.60878514  .00002794  00000+0  15356-2 0  9997", "line2": "2 30515  98.5091 219.2630 0496845  85.5717 309.2494 13.63770997932748"}}, "geometry": {"type": "Point", "coordinates": [21.16226832200762, -64.91899319441397]}}, {"type": "Feature", "properties": {"norad_id": 30516, "name": "FENGYUN 1C DEB", "group": "fengyun-1c-debris", "lat": 47.122024245747895, "lon": -83.20673547029725, "alt_km": 756.3051362303759, "timestamp": "2025-12-09T05:43:21.002795+00:00", "meta": {"OBJECT_NAME": "FENGYUN 1C DEB", "OBJECT_ID": "1999-025AJE", "EPOCH": "2025-12-08T06:04:06.665952", "MEAN_MOTION": 14.41242538, "ECCENTRICITY": 0.00087728, "INCLINATION": 98.8579, "RA_OF_ASC_NODE": 86.1039, "ARG_OF_PERICENTER": 305.1095, "MEAN_ANOMALY": 116.1869, "EPHEMERIS_TYPE": 0, "CLASSIFICATION_TYPE": "U", "NORAD_CAT_ID": 30516, "ELEMENT_SET_NO": 999, "REV_AT_EPOCH": 97650, "BSTAR": 0.0027782188, "MEAN_MOTION_DOT": 8.942e-05, "MEAN_MOTION_DDOT": 0}, "tle": {"line1": "1 30516U 99025AJE 25342.25285493  .00008942  00000+0  27782-2 0  9994", "line2": "2 30516  98.8579  86.1039 0008772 305.1095 116.1869 14.41242538976500"}}, "geometry": {"type": "Point", "coordinates": [-83.20673547029725, 47.122024245747895]}}, {"type": "Feature", "properties": {"norad_id": 30520, "name": "FENGYUN 1C DEB", "group": "fengyun-1c-debris", "lat": 59.28667395439225, "lon": 140.56791632943953, "alt_km": 488.0724138009209, "timestamp": "2025-12-09T05:43:21.002805+00:00", "meta": {"OBJECT_NAME": "FENGYUN 1C DEB", "OBJECT_ID": "1999-025AJJ", "EPOCH": "2025-12-08T10:25:13.724832", "MEAN_MOTION": 15.13790163, "ECCENTRICITY": 0.00705816, "INCLINATION": 98.7185, "RA_OF_ASC_NODE": 154.6184, "ARG_OF_PERICENTER": 114.4118, "MEAN_ANOMALY": 246.4496, "EPHEMERIS_TYPE": 0, "CLASSIFICATION_TYPE": "U", "NORAD_CAT_ID": 30520, "ELEMENT_SET_NO": 999, "REV_AT_EPOCH": 976, "BSTAR": 0.0014430103, "MEAN_MOTION_DOT": 0.00027702, "MEAN_MOTION_DDOT": 0}, "tle": {"line1": "1 30520U 99025AJJ 25342.43418663  .00027702  00000+0  14430-2 0  9997", "line2": "2 30520  98.7185 154.6184 0070581 114.4118 246.4496 15.13790163  9763"}}, "geometry": {"type": "Point", "coordinates": [140.56791632943953, 59.28667395439225]}}, {"type": "Feature", "properties": {"norad_id": 30521, "name": "FENGYUN 1C DEB", "group": "fengyun-1c-debris", "lat": -25.95399998879202, "lon": -66.22912235360431, "alt_km": 639.9287563396574, "timestamp": "2025-12-09T05:43:21.002816+00:00", "meta": {"OBJECT_NAME": "FENGYUN 1C DEB", "OBJECT_ID": "1999-025AJK", "EPOCH": "2025-12-08T02:25:06.536640", "MEAN_MOTION": 14.58191812, "ECCENTRICITY": 0.01356066, "INCLINATION": 98.9887, "RA_OF_ASC_NODE": 116.9603, "ARG_OF_PERICENTER": 257.8469, "MEAN_ANOMALY": 100.7509, "EPHEMERIS_TYPE": 0, "CLASSIFICATION_TYPE": "U", "NORAD_CAT_ID": 30521, "ELEMENT_SET_NO": 999, "REV_AT_EPOCH": 99514, "BSTAR": 0.0010563672, "MEAN_MOTION_DOT": 5.474e-05, "MEAN_MOTION_DDOT": 0}, "tle": {"line1": "1 30521U 99025AJK 25342.10077010  .00005474  00000+0  10564-2 0  9995", "line2": "2 30521  98.9887 116.9603 0135606 257.8469 100.7509 14.58191812995140"}}, "geometry": {"type": "Point", "coordinates": [-66.22912235360431, -25.95399998879202]}}, {"type": "Feature", "properties": {"norad_id": 30523, "name": "FENGYUN 1C DEB", "group": "fengyun-1c-debris", "lat": 39.91486589443604, "lon": 148.83667714289805, "alt_km": 631.1351692831404, "timestamp": "2025-12-09T05:43:21.002826+00:00", "meta": {"OBJECT_NAME": "FENGYUN 1C DEB", "OBJECT_ID": "1999-025AJM", "EPOCH": "2025-12-08T09:38:40.443072", "MEAN_MOTION": 14.27922624, "ECCENTRICITY": 0.02440508, "INCLINATION": 98.4656, "RA_OF_ASC_NODE": 320.8677, "ARG_OF_PERICENTER": 121.245, "MEAN_ANOMALY": 39.2518, "EPHEMERIS_TYPE": 0, "CLASSIFICATION_TYPE": "U", "NORAD_CAT_ID": 30523, "ELEMENT_SET_NO": 999, "REV_AT_EPOCH": 98038, "BSTAR": 0.00028509033, "MEAN_MOTION_DOT": 9.24e-06, "MEAN_MOTION_DDOT": 0}, "tle": {"line1": "1 30523U 99025AJM 25342.40185698  .00000924  00000+0  28509-3 0  9996", "line2": "2 30523  98.4656 320.8677 0244050 121.2450  39.2518 14.27922624980381"}}, "geometry": {"type": "Point", "coordinates": [148.83667714289805, 39.91486589443604]}}, {"type": "Feature", "properties": {"norad_id": 30524, "name": "FENGYUN 1C DEB", "group": "fengyun-1c-debris", "lat": -6.922938137386241, "lon": -25.812546703972888, "alt_km": 876.9377008732818, "timestamp": "2025-12-09T05:43:21.002837+00:00", "meta": {"OBJECT_NAME": "FENGYUN 1C DEB", "OBJECT_ID": "1999-025AJN", "EPOCH": "2025-12-08T09:49:51.464352", "MEAN_MOTION": 13.92090245, "ECCENTRICITY": 0.0207933, "INCLINATION": 99.3085, "RA_OF_ASC_NODE": 154.496, "ARG_OF_PERICENTER": 261.8239, "MEAN_ANOMALY": 95.929, "EPHEMERIS_TYPE": 0, "CLASSIFICATION_TYPE": "U", "NORAD_CAT_ID": 30524, "ELEMENT_SET_NO": 999, "REV_AT_EPOCH": 93825, "BSTAR": 0.007192921, "MEAN_MOTION_DOT": 0.00010944, "MEAN_MOTION_DDOT": 0}, "tle": {"line1": "1 30524U 99025AJN 25342.40962343  .00010944  00000+0  71929-2 0  9993", "line2": "2 30524  99.3085 154.4960 0207933 261.8239  95.9290 13.92090245938250"}}, "geometry": {"type": "Point", "coordinates": [-25.812546703972888, -6.922938137386241]}}, {"type": "Feature", "properties": {"norad_id": 30525, "name": "FENGYUN 1C DEB", "group": "fengyun-1c-debris", "lat": 47.99448499671143, "lon": 58.43523723367484, "alt_km": 1252.6732224663847, "timestamp": "2025-12-09T05:43:21.002865+00:00", "meta": {"OBJECT_NAME": "FENGYUN 1C DEB", "OBJECT_ID": "1999-025AJP", "EPOCH": "2025-12-07T15:57:14.658336", "MEAN_MOTION": 13.58585376, "ECCENTRICITY": 0.02940097, "INCLINATION": 98.6021, "RA_OF_ASC_NODE": 227.3772, "ARG_OF_PERICENTER": 322.7066, "MEAN_ANOMALY": 35.398, "EPHEMERIS_TYPE": 0, "CLASSIFICATION_TYPE": "U", "NORAD_CAT_ID": 30525, "ELEMENT_SET_NO": 999, "REV_AT_EPOCH": 93048, "BSTAR": 0.0026285251, "MEAN_MOTION_DOT": 2.505e-05, "MEAN_MOTION_DDOT": 0}, "tle": {"line1": "1 30525U 99025AJP 25341.66475299  .00002505  00000+0  26285-2 0  9999", "line2": "2 30525  98.6021 227.3772 0294009 322.7066  35.3980 13.58585376930486"}}, "geometry": {"type": "Point", "coordinates": [58.43523723367484, 47.99448499671143]}}, {"type": "Feature", "properties": {"norad_id": 30526, "name": "FENGYUN 1C DEB", "group": "fengyun-1c-debris", "lat": -44.704819769760974, "lon": -123.94687414539044, "alt_km": 923.2054297304157, "timestamp": "2025-12-09T05:43:21.002877+00:00", "meta": {"OBJECT_NAME": "FENGYUN 1C DEB", "OBJECT_ID": "1999-025AJQ", "EPOCH": "2025-12-07T04:33:03.504960", "MEAN_MOTION": 13.49889443, "ECCENTRICITY": 0.03057639, "INCLINATION": 99.5477, "RA_OF_ASC_NODE": 63.6756, "ARG_OF_PERICENTER": 278.6065, "MEAN_ANOMALY": 78.0544, "EPHEMERIS_TYPE": 0, "CLASSIFICATION_TYPE": "U", "NORAD_CAT_ID": 30526, "ELEMENT_SET_NO": 999, "REV_AT_EPOCH": 92583, "BSTAR": 0.0021247532, "MEAN_MOTION_DOT": 1.758e-05, "MEAN_MOTION_DDOT": 0}, "tle": {"line1": "1 30526U 99025AJQ 25341.18962390  .00001758  00000+0  21248-2 0  9993", "line2": "2 30526  99.5477  63.6756 0305763 278.6065  78.0544 13.49889443925838"}}, "geometry": {"type": "Point", "coordinates": [-123.94687414539044, -44.704819769760974]}}, {"type": "Feature", "properties": {"norad_id": 30527, "name": "FENGYUN 1C DEB", "group": "fengyun-1c-debris", "lat": 17.419314860592895, "lon": 23.48740274865518, "alt_km": 1386.5675644116873, "timestamp": "2025-12-09T05:43:21.002888+00:00", "meta": {"OBJECT_NAME": "FENGYUN 1C DEB", "OBJECT_ID": "1999-025AJR", "EPOCH": "2025-12-08T14:12:40.305024", "MEAN_MOTION": 13.31018668, "ECCENTRICITY": 0.0413021, "INCLINATION": 100.0641, "RA_OF_ASC_NODE": 26.0481, "ARG_OF_PERICENTER": 236.3127, "MEAN_ANOMALY": 283.2307, "EPHEMERIS_TYPE": 0, "CLASSIFICATION_TYPE": "U", "NORAD_CAT_ID": 30527, "ELEMENT_SET_NO": 999, "REV_AT_EPOCH": 91301, "BSTAR": 0.0027092, "MEAN_MOTION_DOT": 2.018e-05, "MEAN_MOTION_DDOT": 0}, "tle": {"line1": "1 30527U 99025AJR 25342.59213316  .00002018  00000+0  27092-2 0  9990", "line2": "2 30527 100.0641  26.0481 0413021 236.3127 283.2307 13.31018668913013"}}, "geometry": {"type": "Point", "coordinates": [23.48740274865518, 17.419314860592895]}}, {"type": "Feature", "properties": {"norad_id": 30528, "name": "FENGYUN 1C DEB", "group": "fengyun-1c-debris", "lat": 50.85528192907361, "lon": -157.14258152599058, "alt_km": 945.9710217459924, "timestamp": "2025-12-09T05:43:21.002898+00:00", "meta": {"OBJECT_NAME": "FENGYUN 1C DEB", "OBJECT_ID": "1999-025AJS", "EPOCH": "2025-12-08T14:26:57.623712", "MEAN_MOTION": 14.13485717, "ECCENTRICITY": 0.0143279, "INCLINATION": 98.2382, "RA_OF_ASC_NODE": 212.5233, "ARG_OF_PERICENTER": 237.9765, "MEAN_ANOMALY": 177.1341, "EPHEMERIS_TYPE": 0, "CLASSIFICATION_TYPE": "U", "NORAD_CAT_ID": 30528, "ELEMENT_SET_NO": 999, "REV_AT_EPOCH": 97079, "BSTAR": 0.00066775, "MEAN_MOTION_DOT": 1.346e-05, "MEAN_MOTION_DDOT": 0}, "tle": {"line1": "1 30528U 99025AJS 25342.60205583  .00001346  00000+0  66775-3 0  9995", "line2": "2 30528  98.2382 212.5233 0143279 237.9765 177.1341 14.13485717970792"}}, "geometry": {"type": "Point", "coordinates": [-157.14258152599058, 50.85528192907361]}}]}